NORAD_CAT_ID,OBJECT_NAME,OBJECT_TYPE,EPOCH,MEAN_MOTION,ECCENTRICITY,INCLINATION,RA_OF_ASC_NODE,ARG_OF_PERICENTER,MEAN_ANOMALY,BSTAR,MEAN_MOTION_DOT,MEAN_MOTION_DDOT,TLE_LINE0,TLE_LINE1,TLE_LINE2,SEMIMAJOR_AXIS,PERIOD,APOGEE,PERIGEE,DECAYED
52137.0,STARLINK-3733,PAYLOAD,2022-12-03 12:43:52,15.08843248,0.0002576,53.2187,20.9387,37.3226,322.7945,-3.4668e-05,-8.400000000000001e-06,0.0,0 STARLINK-3733,1 52137U 22029BB  22337.53046491 -.00000840  00000-0 -34668-4 0  9997,2 52137  53.2187  20.9387 0002576  37.3226 322.7945 15.08843248 40962,6917.87,95.437,541.518,537.953,0.0
52137.0,STARLINK-3733,PAYLOAD,2022-12-03 20:40:47,15.08843553,0.0002677,53.2184,19.4524,34.7169,325.3998,-7.648e-05,-1.506e-05,0.0,0 STARLINK-3733,1 52137U 22029BB  22337.86166491 -.00001506  00000-0 -76480-4 0  9994,2 52137  53.2184  19.4524 0002677  34.7169 325.3998 15.08843553 41017,6917.87,95.437,541.586,537.883,0.0
52137.0,STARLINK-3733,PAYLOAD,2022-12-04 07:48:29,15.08847371,0.0002733,53.2185,17.3704,34.6239,325.4931,-0.00012318,-2.249e-05,0.0,0 STARLINK-3733,1 52137U 22029BB  22338.32534273 -.00002249  00000-0 -12318-3 0  9997,2 52137  53.2185  17.3704 0002733  34.6239 325.4931 15.08847371 41082,6917.858,95.437,541.614,537.832,0.0
52137.0,STARLINK-3733,PAYLOAD,2022-12-04 09:23:52,15.08844955,0.0002663,53.2192,17.0727,33.0574,327.0584,-7.4588e-05,-1.476e-05,0.0,0 STARLINK-3733,1 52137U 22029BB  22338.39158333 -.00001476  00000-0 -74588-4 0  9992,2 52137  53.2192  17.0727 0002663  33.0574 327.0584 15.08844955 41097,6917.865,95.437,541.572,537.888,0.0
52137.0,STARLINK-3733,PAYLOAD,2022-12-04 14:10:01,15.08848159,0.0002661,53.2193,16.1801,36.1082,324.0089,-5.6535e-05,-1.188e-05,0.0,0 STARLINK-3733,1 52137U 22029BB  22338.59029997 -.00001188  00000-0 -56535-4 0  9999,2 52137  53.2193  16.1801 0002661  36.1082 324.0089 15.08848159 41128,6917.855,95.437,541.561,537.88,0.0
52137.0,STARLINK-3733,PAYLOAD,2022-12-05 09:14:39,15.08843776,0.0002752,53.2189,12.613,34.1472,325.9697,5.0454e-05,5.15e-06,0.0,0 STARLINK-3733,1 52137U 22029BB  22339.38517924  .00000515  00000-0  50454-4 0  9994,2 52137  53.2189  12.6130 0002752  34.1472 325.9697 15.08843776 41249,6917.869000000002,95.437,541.638,537.83,0.0
52137.0,STARLINK-3733,PAYLOAD,2022-12-05 18:46:58,15.08839642,0.0002788,53.2189,10.8291,34.2338,325.8833,1.0965e-05,-1.14e-06,0.0,0 STARLINK-3733,1 52137U 22029BB  22339.78262286 -.00000114  00000-0  10965-4 0  9995,2 52137  53.2189  10.8291 0002788  34.2338 325.8833 15.08839642 41303,6917.880999999999,95.438,541.675,537.818,0.0
52137.0,STARLINK-3733,PAYLOAD,2022-12-06 09:05:26,15.08840076,0.0002765,53.2189,8.1522,31.8173,328.2985,8.0429e-05,9.92e-06,0.0,0 STARLINK-3733,1 52137U 22029BB  22340.37877951  .00000992  00000-0  80429-4 0  9998,2 52137  53.2189   8.1522 0002765  31.8173 328.2985 15.08840076 41392,6917.88,95.438,541.658,537.832,0.0
52137.0,STARLINK-3733,PAYLOAD,2022-12-06 18:37:46,15.08826918,0.0002701,53.2189,6.3693,30.8482,329.2668,-0.00011416,-2.104e-05,0.0,0 STARLINK-3733,1 52137U 22029BB  22340.77623596 -.00002104  00000-0 -11416-3 0  9994,2 52137  53.2189   6.3693 0002701  30.8482 329.2668 15.08826918 41458,6917.92,95.438,541.654,537.9169999999998,0.0
52137.0,STARLINK-3733,PAYLOAD,2022-12-07 08:56:14,15.08835115,0.0002611,53.2201,3.6937,28.8355,331.2782,-3.2143e-05,-8e-06,0.0,0 STARLINK-3733,1 52137U 22029BB  22341.37239096 -.00000800  00000-0 -32143-4 0  9991,2 52137  53.2201   3.6937 0002611  28.8355 331.2782 15.08835115 41549,6917.895,95.438,541.567,537.9540000000002,0.0
52137.0,STARLINK-3733,PAYLOAD,2022-12-07 18:28:32,15.08843547,0.0002092,53.22,1.9102,9.0213,351.0817,3.6177e-05,2.88e-06,0.0,0 STARLINK-3733,1 52137U 22029BB  22341.76982289  .00000288  00000-0  36177-4 0  9992,2 52137  53.2200   1.9102 0002092   9.0213 351.0817 15.08843547 41604,6917.87,95.437,541.182,538.2869999999998,0.0
52137.0,STARLINK-3733,PAYLOAD,2022-12-08 00:50:04,15.08856002,0.000275,53.22,0.7203,0.7473,359.3523,0.00023289,3.422e-05,0.0,0 STARLINK-3733,1 52137U 22029BB  22342.03477310  .00003422  00000-0  23289-3 0  9999,2 52137  53.2200   0.7203 0002750   0.7473 359.3523 15.08856002 41649,6917.831,95.437,541.599,537.794,0.0
52137.0,STARLINK-3733,PAYLOAD,2022-12-08 08:47:01,15.08844784,0.0002714,53.2192,359.2321,32.0533,328.0624,7.3817e-05,8.87e-06,0.0,0 STARLINK-3733,1 52137U 22029BB  22342.36598492  .00000887  00000-0  73817-4 0  9995,2 52137  53.2192 359.2321 0002714  32.0533 328.0624 15.08844784 41691,6917.866,95.437,541.6080000000002,537.8530000000002,0.0
52137.0,STARLINK-3733,PAYLOAD,2022-12-09 07:02:11,15.09028688,0.0003352,53.2195,355.07199999999995,60.4943,299.6383,0.0014242,0.0002257,0.0,0 STARLINK-3733,1 52137U 22029BB  22343.29319170  .00022570  00000-0  14242-2 0  9990,2 52137  53.2195 355.0720 0003352  60.4943 299.6383 15.09028688 41839,6917.304,95.426,541.487,536.85,0.0
52137.0,STARLINK-3733,PAYLOAD,2022-12-09 16:34:46,15.08800436,0.0003058,53.2194,353.2912,29.4781,330.6383,-0.00011078,-2.049e-05,0.0,0 STARLINK-3733,1 52137U 22029BB  22343.69081853 -.00002049  00000-0 -11078-3 0  9994,2 52137  53.2194 353.2912 0003058  29.4781 330.6383 15.08800436 41899,6918.001,95.44,541.982,537.751,0.0
52137.0,STARLINK-3733,PAYLOAD,2022-12-09 21:20:54,15.08825512,0.0002177,53.2187,352.3926,351.9483,8.1474,3.4802999999999987e-06,-2.33e-06,0.0,0 STARLINK-3733,1 52137U 22029BB  22343.88951396 -.00000233  00000-0  34803-5 0  9998,2 52137  53.2187 352.3926 0002177 351.9483   8.1474 15.08825512 41923,6917.925,95.438,541.2959999999998,538.284,0.0
52137.0,STARLINK-3733,PAYLOAD,2022-12-10 10:03:58,15.08844391,0.0002842,53.2185,350.0133,29.6845,330.4308,-3.1149e-05,-7.84e-06,0.0,0 STARLINK-3733,1 52137U 22029BB  22344.41942939 -.00000784  00000-0 -31149-4 0  9992,2 52137  53.2185 350.0133 0002842  29.6845 330.4308 15.08844391 42009,6917.8669999999975,95.437,541.698,537.766,0.0
52137.0,STARLINK-3733,PAYLOAD,2022-12-11 09:54:46,15.08831777,0.0002771,53.219,345.5541,32.7089,327.4074,-1.1457e-05,-4.71e-06,0.0,0 STARLINK-3733,1 52137U 22029BB  22345.41303391 -.00000471  00000-0 -11457-4 0  9999,2 52137  53.2190 345.5541 0002771  32.7089 327.4074 15.08831777 42159,6917.906,95.438,541.687,537.854,0.0
52137.0,STARLINK-3733,PAYLOAD,2022-12-11 11:30:09,15.088278400000002,0.0003087,53.2188,345.2567,27.9676,332.1482,4.035300000000001e-05,3.53e-06,0.0,0 STARLINK-3733,1 52137U 22029BB  22345.47927546  .00000353  00000-0  40353-4 0  9993,2 52137  53.2188 345.2567 0003087  27.9676 332.1482 15.08827840 42163,6917.918000000002,95.438,541.918,537.6469999999998,0.0
52137.0,STARLINK-3733,PAYLOAD,2022-12-12 00:13:13,15.08836754,0.0002471,53.2179,342.8777,29.6346,330.4786,0.00014132,1.961e-05,0.0,0 STARLINK-3733,1 52137U 22029BB  22346.00918699  .00001961  00000-0  14132-3 0  9993,2 52137  53.2179 342.8777 0002471  29.6346 330.4786 15.08836754 42249,6917.89,95.438,541.465,538.0459999999998,0.0
52137.0,STARLINK-3733,PAYLOAD,2022-12-12 09:45:32,15.08839411,0.0002862,53.2189,341.0946,26.4369,333.6769,8.907e-05,1.129e-05,0.0,0 STARLINK-3733,1 52137U 22029BB  22346.40662822  .00001129  00000-0  89070-4 0  9991,2 52137  53.2189 341.0946 0002862  26.4369 333.6769 15.08839411 42309,6917.882,95.438,541.727,537.7669999999998,0.0
52137.0,STARLINK-3733,PAYLOAD,2022-12-13 08:00:57,15.08832531,0.0002782,53.2183,336.9307,29.1471,330.9676,-4.6738e-05,-1.032e-05,0.0,0 STARLINK-3733,1 52137U 22029BB  22347.33399762 -.00001032  00000-0 -46738-4 0  9993,2 52137  53.2183 336.9307 0002782  29.1471 330.9676 15.08832531 42440,6917.903,95.438,541.693,537.844,0.0
52137.0,STARLINK-3733,PAYLOAD,2022-12-13 15:57:52,15.08833433,0.0002284,53.2182,335.4435,30.1182,329.9941,-1.0054e-05,-4.48e-06,0.0,0 STARLINK-3733,1 52137U 22029BB  22347.66519560 -.00000448  00000-0 -10054-4 0  9991,2 52137  53.2182 335.4435 0002284  30.1182 329.9941 15.08833433 42493,6917.9,95.438,541.346,538.185,0.0
52137.0,STARLINK-3733,PAYLOAD,2022-12-13 23:54:48,15.08850245,0.0002941,53.2181,333.9527,30.0655,330.0505,-0.00012227,-2.235e-05,0.0,0 STARLINK-3733,1 52137U 22029BB  22347.99638968 -.00002235  00000-0 -12227-3 0  9990,2 52137  53.2181 333.9527 0002941  30.0655 330.0505 15.08850245 42546,6917.849,95.437,541.749,537.68,0.0
52137.0,STARLINK-3733,PAYLOAD,2022-12-14 07:51:44,15.08840883,0.0002662,53.2179,332.4675,23.9928,336.1188,-3.4907e-05,-8.44e-06,0.0,0 STARLINK-3733,1 52137U 22029BB  22348.32759419 -.00000844  00000-0 -34907-4 0  9997,2 52137  53.2179 332.4675 0002662  23.9928 336.1188 15.08840883 42591,6917.878000000002,95.437,541.5840000000002,537.901,0.0
52137.0,STARLINK-3733,PAYLOAD,2022-12-14 15:48:39,15.08837896,0.0002665,53.218,330.9806,27.5994,332.5139,7.2496e-05,8.65e-06,0.0,0 STARLINK-3733,1 52137U 22029BB  22348.65879267  .00000865  00000-0  72496-4 0  9993,2 52137  53.2180 330.9806 0002665  27.5994 332.5139 15.08837896 42640,6917.887,95.438,541.595,537.908,0.0
52137.0,STARLINK-3733,PAYLOAD,2022-12-15 07:42:31,15.08831575,0.0002716,53.2195,328.0093,30.1451,329.9697,2.8149e-05,1.59e-06,0.0,0 STARLINK-3733,1 52137U 22029BB  22349.32120069  .00000159  00000-0  28149-4 0  9999,2 52137  53.2195 328.0093 0002716  30.1451 329.9697 15.08831575 42745,6917.906,95.438,541.65,537.8919999999998,0.0
52137.0,STARLINK-3733,PAYLOAD,2022-12-16 02:47:08,15.08847055,0.0002713,53.219,324.4394,25.6561,334.4565,7.4053e-05,8.91e-06,0.0,0 STARLINK-3733,1 52137U 22029BB  22350.11606915  .00000891  00000-0  74053-4 0  9995,2 52137  53.2190 324.4394 0002713  25.6561 334.4565 15.08847055 42860,6917.859,95.437,541.601,537.847,0.0
52137.0,STARLINK-3733,PAYLOAD,2022-12-16 07:33:17,15.08845089,0.0002643,53.219,323.5487,26.8232,333.2896,9.4642e-05,1.218e-05,0.0,0 STARLINK-3733,1 52137U 22029BB  22350.31478954  .00001218  00000-0  94642-4 0  9997,2 52137  53.2190 323.5487 0002643  26.8232 333.2896 15.08845089 42895,6917.865,95.437,541.558,537.901,0.0
